HULIANWANG DIGUI-17     
1 62977U 25030G   26064.73827831 -.00000099  00000+0  54127-4 0  9999
2 62977  50.0046 246.5983 0000761 159.2186 200.8717 13.29338209 52104
HULIANWANG DIGUI-18     
1 62978U 25030H   26064.72990515 -.00000090  00000+0  72367-4 0  9996
2 62978  50.0051 246.5649 0000773 159.7355 200.3548 13.29338266 52106
HULIANWANG DIGUI-19     
1 62979U 25030J   26064.68793618 -.00000085  00000+0  85069-4 0  9994
2 62979  50.0036 246.9634 0000817 154.8850 205.2062 13.29341477 52094
HULIANWANG DIGUI-20     
1 63687U 25086A   26064.75036259  .00000069  00000+0  12626-3 0  9990
2 63687  86.5125 347.9634 0001744  91.6054 268.5280 13.24420227 41188
HULIANWANG DIGUI-21     
1 63688U 25086B   26064.75785413  .00000058  00000+0  10121-3 0  9990
2 63688  86.5154 347.9903 0001635  94.5560 265.5761 13.24421834 41178
HULIANWANG DIGUI-22     
1 63689U 25086C   26064.76541819  .00000062  00000+0  11139-3 0  9997
2 63689  86.5119 347.8907 0001809  91.7229 268.4113 13.24421585 41173
HULIANWANG DIGUI-23     
1 63690U 25086D   26064.78047580  .00000060  00000+0  10485-3 0  9998
2 63690  86.5160 348.0224 0001750  88.0485 272.0849 13.24422300 41177
HULIANWANG DIGUI-24     
1 63691U 25086E   26064.78808875  .00000077  00000+0  14479-3 0  9996
2 63691  86.5166 348.0465 0001786  92.3014 267.8325 13.24420424 41172
HULIANWANG DIGUI-25     
1 63692U 25086F   26064.79562023  .00000083  00000+0  15945-3 0  9996
2 63692  86.5105 347.8655 0001685  91.3029 268.8298 13.24421817 41174
HULIANWANG DIGUI-26     
1 63693U 25086G   26064.77284815  .00000051  00000+0  85854-4 0  9997
2 63693  86.5154 347.9998 0001766  96.4059 263.7276 13.24421321 41179
HULIANWANG DIGUI-27     
1 63694U 25086H   26064.72770666  .00000088  00000+0  17187-3 0  9990
2 63694  86.5115 347.9229 0001792  91.3326 268.8013 13.24420191 41162
HULIANWANG DIGUI-28     
1 63695U 25086J   26064.74273848  .00000085  00000+0  16405-3 0  9992
2 63695  86.5080 347.8222 0001792  91.3698 268.7641 13.24421546 41169
HULIANWANG DIGUI-29     
1 63696U 25086K   26064.73526267  .00000089  00000+0  17365-3 0  9998
2 63696  86.5107 347.9049 0001676  91.8401 268.2925 13.24420360 41169
HULIANWANG DIGUI-30     
1 64283U 25121A   26064.74263087  .00000057  00000+0  98283-4 0  9994
2 64283  86.4949  48.4568 0001992  78.3388 281.7969 13.24423406 36468
HULIANWANG DIGUI-31     
1 64284U 25121B   26064.73529979  .00000046  00000+0  72441-4 0  9995
2 64284  86.4969  48.5099 0002013  78.6554 281.4806 13.24419581 36460
HULIANWANG DIGUI-32     
1 64285U 25121C   26064.72738720  .00000029  00000+0  32246-4 0  9991
2 64285  86.4910  48.3418 0002009  80.7497 279.3864 13.24425219 36460
