[{"OBJECT_NAME":"HULIANWANG DIGUI-17","OBJECT_ID":"2025-030G","EPOCH":"2026-03-05T17:43:07.245984","MEAN_MOTION":13.29338209,"ECCENTRICITY":7.61e-5,"INCLINATION":50.0046,"RA_OF_ASC_NODE":246.5983,"ARG_OF_PERICENTER":159.2186,"MEAN_ANOMALY":200.8717,"EPHEMERIS_TYPE":0,"CLASSIFICATION_TYPE":"U","NORAD_CAT_ID":62977,"ELEMENT_SET_NO":999,"REV_AT_EPOCH":5210,"BSTAR":5.4127e-5,"MEAN_MOTION_DOT":-9.9e-7,"MEAN_MOTION_DDOT":0},{"OBJECT_NAME":"HULIANWANG DIGUI-18","OBJECT_ID":"2025-030H","EPOCH":"2026-03-05T17:31:03.804960","MEAN_MOTION":13.29338266,"ECCENTRICITY":7.73e-5,"INCLINATION":50.0051,"RA_OF_ASC_NODE":246.5649,"ARG_OF_PERICENTER":159.7355,"MEAN_ANOMALY":200.3548,"EPHEMERIS_TYPE":0,"CLASSIFICATION_TYPE":"U","NORAD_CAT_ID":62978,"ELEMENT_SET_NO":999,"REV_AT_EPOCH":5210,"BSTAR":7.2367e-5,"MEAN_MOTION_DOT":-9.0e-7,"MEAN_MOTION_DDOT":0},{"OBJECT_NAME":"HULIANWANG DIGUI-19","OBJECT_ID":"2025-030J","EPOCH":"2026-03-05T16:30:37.685952","MEAN_MOTION":13.29341477,"ECCENTRICITY":8.17e-5,"INCLINATION":50.0036,"RA_OF_ASC_NODE":246.9634,"ARG_OF_PERICENTER":154.885,"MEAN_ANOMALY":205.2062,"EPHEMERIS_TYPE":0,"CLASSIFICATION_TYPE":"U","NORAD_CAT_ID":62979,"ELEMENT_SET_NO":999,"REV_AT_EPOCH":5209,"BSTAR":8.5069e-5,"MEAN_MOTION_DOT":-8.5e-7,"MEAN_MOTION_DDOT":0},{"OBJECT_NAME":"HULIANWANG DIGUI-20","OBJECT_ID":"2025-086A","EPOCH":"2026-03-05T18:00:31.327776","MEAN_MOTION":13.24420227,"ECCENTRICITY":0.0001744,"INCLINATION":86.5125,"RA_OF_ASC_NODE":347.9634,"ARG_OF_PERICENTER":91.6054,"MEAN_ANOMALY":268.528,"EPHEMERIS_TYPE":0,"CLASSIFICATION_TYPE":"U","NORAD_CAT_ID":63687,"ELEMENT_SET_NO":999,"REV_AT_EPOCH":4118,"BSTAR":0.00012626,"MEAN_MOTION_DOT":6.9e-7,"MEAN_MOTION_DDOT":0},{"OBJECT_NAME":"HULIANWANG DIGUI-21","OBJECT_ID":"2025-086B","EPOCH":"2026-03-05T18:11:18.596832","MEAN_MOTION":13.24421834,"ECCENTRICITY":0.0001635,"INCLINATION":86.5154,"RA_OF_ASC_NODE":347.9903,"ARG_OF_PERICENTER":94.556,"MEAN_ANOMALY":265.5761,"EPHEMERIS_TYPE":0,"CLASSIFICATION_TYPE":"U","NORAD_CAT_ID":63688,"ELEMENT_SET_NO":999,"REV_AT_EPOCH":4117,"BSTAR":0.00010121,"MEAN_MOTION_DOT":5.8e-7,"MEAN_MOTION_DDOT":0},{"OBJECT_NAME":"HULIANWANG DIGUI-22","OBJECT_ID":"2025-086C","EPOCH":"2026-03-05T18:22:12.131616","MEAN_MOTION":13.24421585,"ECCENTRICITY":0.0001809,"INCLINATION":86.5119,"RA_OF_ASC_NODE":347.8907,"ARG_OF_PERICENTER":91.7229,"MEAN_ANOMALY":268.4113,"EPHEMERIS_TYPE":0,"CLASSIFICATION_TYPE":"U","NORAD_CAT_ID":63689,"ELEMENT_SET_NO":999,"REV_AT_EPOCH":4117,"BSTAR":0.00011139,"MEAN_MOTION_DOT":6.2e-7,"MEAN_MOTION_DDOT":0},{"OBJECT_NAME":"HULIANWANG DIGUI-23","OBJECT_ID":"2025-086D","EPOCH":"2026-03-05T18:43:53.109120","MEAN_MOTION":13.244223,"ECCENTRICITY":0.000175,"INCLINATION":86.516,"RA_OF_ASC_NODE":348.0224,"ARG_OF_PERICENTER":88.0485,"MEAN_ANOMALY":272.0849,"EPHEMERIS_TYPE":0,"CLASSIFICATION_TYPE":"U","NORAD_CAT_ID":63690,"ELEMENT_SET_NO":999,"REV_AT_EPOCH":4117,"BSTAR":0.00010485,"MEAN_MOTION_DOT":6.0e-7,"MEAN_MOTION_DDOT":0},{"OBJECT_NAME":"HULIANWANG DIGUI-24","OBJECT_ID":"2025-086E","EPOCH":"2026-03-05T18:54:50.868000","MEAN_MOTION":13.24420424,"ECCENTRICITY":0.0001786,"INCLINATION":86.5166,"RA_OF_ASC_NODE":348.0465,"ARG_OF_PERICENTER":92.3014,"MEAN_ANOMALY":267.8325,"EPHEMERIS_TYPE":0,"CLASSIFICATION_TYPE":"U","NORAD_CAT_ID":63691,"ELEMENT_SET_NO":999,"REV_AT_EPOCH":4117,"BSTAR":0.00014479,"MEAN_MOTION_DOT":7.7e-7,"MEAN_MOTION_DDOT":0},{"OBJECT_NAME":"HULIANWANG DIGUI-25","OBJECT_ID":"2025-086F","EPOCH":"2026-03-05T19:05:41.587872","MEAN_MOTION":13.24421817,"ECCENTRICITY":0.0001685,"INCLINATION":86.5105,"RA_OF_ASC_NODE":347.8655,"ARG_OF_PERICENTER":91.3029,"MEAN_ANOMALY":268.8298,"EPHEMERIS_TYPE":0,"CLASSIFICATION_TYPE":"U","NORAD_CAT_ID":63692,"ELEMENT_SET_NO":999,"REV_AT_EPOCH":4117,"BSTAR":0.00015945,"MEAN_MOTION_DOT":8.3e-7,"MEAN_MOTION_DDOT":0},{"OBJECT_NAME":"HULIANWANG DIGUI-26","OBJECT_ID":"2025-086G","EPOCH":"2026-03-05T18:32:54.080160","MEAN_MOTION":13.24421321,"ECCENTRICITY":0.0001766,"INCLINATION":86.5154,"RA_OF_ASC_NODE":347.9998,"ARG_OF_PERICENTER":96.4059,"MEAN_ANOMALY":263.7276,"EPHEMERIS_TYPE":0,"CLASSIFICATION_TYPE":"U","NORAD_CAT_ID":63693,"ELEMENT_SET_NO":999,"REV_AT_EPOCH":4117,"BSTAR":8.5854e-5,"MEAN_MOTION_DOT":5.1e-7,"MEAN_MOTION_DDOT":0},{"OBJECT_NAME":"HULIANWANG DIGUI-27","OBJECT_ID":"2025-086H","EPOCH":"2026-03-05T17:27:53.855424","MEAN_MOTION":13.24420191,"ECCENTRICITY":0.0001792,"INCLINATION":86.5115,"RA_OF_ASC_NODE":347.9229,"ARG_OF_PERICENTER":91.3326,"MEAN_ANOMALY":268.8013,"EPHEMERIS_TYPE":0,"CLASSIFICATION_TYPE":"U","NORAD_CAT_ID":63694,"ELEMENT_SET_NO":999,"REV_AT_EPOCH":4116,"BSTAR":0.00017187,"MEAN_MOTION_DOT":8.8e-7,"MEAN_MOTION_DDOT":0},{"OBJECT_NAME":"HULIANWANG DIGUI-28","OBJECT_ID":"2025-086J","EPOCH":"2026-03-05T17:49:32.604672","MEAN_MOTION":13.24421546,"ECCENTRICITY":0.0001792,"INCLINATION":86.508,"RA_OF_ASC_NODE":347.8222,"ARG_OF_PERICENTER":91.3698,"MEAN_ANOMALY":268.7641,"EPHEMERIS_TYPE":0,"CLASSIFICATION_TYPE":"U","NORAD_CAT_ID":63695,"ELEMENT_SET_NO":999,"REV_AT_EPOCH":4116,"BSTAR":0.00016405,"MEAN_MOTION_DOT":8.5e-7,"MEAN_MOTION_DDOT":0},{"OBJECT_NAME":"HULIANWANG DIGUI-29","OBJECT_ID":"2025-086K","EPOCH":"2026-03-05T17:38:46.694688","MEAN_MOTION":13.2442036,"ECCENTRICITY":0.0001676,"INCLINATION":86.5107,"RA_OF_ASC_NODE":347.9049,"ARG_OF_PERICENTER":91.8401,"MEAN_ANOMALY":268.2925,"EPHEMERIS_TYPE":0,"CLASSIFICATION_TYPE":"U","NORAD_CAT_ID":63696,"ELEMENT_SET_NO":999,"REV_AT_EPOCH":4116,"BSTAR":0.00017365,"MEAN_MOTION_DOT":8.9e-7,"MEAN_MOTION_DDOT":0},{"OBJECT_NAME":"HULIANWANG DIGUI-30","OBJECT_ID":"2025-121A","EPOCH":"2026-03-05T17:49:23.307168","MEAN_MOTION":13.24423406,"ECCENTRICITY":0.0001992,"INCLINATION":86.4949,"RA_OF_ASC_NODE":48.4568,"ARG_OF_PERICENTER":78.3388,"MEAN_ANOMALY":281.7969,"EPHEMERIS_TYPE":0,"CLASSIFICATION_TYPE":"U","NORAD_CAT_ID":64283,"ELEMENT_SET_NO":999,"REV_AT_EPOCH":3646,"BSTAR":9.8283e-5,"MEAN_MOTION_DOT":5.7e-7,"MEAN_MOTION_DDOT":0},{"OBJECT_NAME":"HULIANWANG DIGUI-31","OBJECT_ID":"2025-121B","EPOCH":"2026-03-05T17:38:49.901856","MEAN_MOTION":13.24419581,"ECCENTRICITY":0.0002013,"INCLINATION":86.4969,"RA_OF_ASC_NODE":48.5099,"ARG_OF_PERICENTER":78.6554,"MEAN_ANOMALY":281.4806,"EPHEMERIS_TYPE":0,"CLASSIFICATION_TYPE":"U","NORAD_CAT_ID":64284,"ELEMENT_SET_NO":999,"REV_AT_EPOCH":3646,"BSTAR":7.2441e-5,"MEAN_MOTION_DOT":4.6e-7,"MEAN_MOTION_DDOT":0},{"OBJECT_NAME":"HULIANWANG DIGUI-32","OBJECT_ID":"2025-121C","EPOCH":"2026-03-05T17:27:26.254080","MEAN_MOTION":13.24425219,"ECCENTRICITY":0.0002009,"INCLINATION":86.491,"RA_OF_ASC_NODE":48.3418,"ARG_OF_PERICENTER":80.7497,"MEAN_ANOMALY":279.3864,"EPHEMERIS_TYPE":0,"CLASSIFICATION_TYPE":"U","NORAD_CAT_ID":64285,"ELEMENT_SET_NO":999,"REV_AT_EPOCH":3646,"BSTAR":3.2246e-5,"MEAN_MOTION_DOT":2.9e-7,"MEAN_MOTION_DDOT":0}]
